YAOGAN-36 01A           
1 53943U 22120A   26068.76225898  .00012015  00000+0  51239-3 0  9991
2 53943  34.9902 190.0789 0005211 178.8422 181.2305 15.22125163192143
2024-174C               
1 61240U 24174C   26066.23722824  .00004544  00000+0  20676-3 0  9991
2 61240  97.4469  75.6508 0009601 198.0637 162.0259 15.21181447 80204
