[{"OBJECT_NAME":"YAOGAN-36 01A","OBJECT_ID":"2022-120A","EPOCH":"2026-03-09T18:17:39.175872","MEAN_MOTION":15.22125163,"ECCENTRICITY":0.00052111,"INCLINATION":34.9902,"RA_OF_ASC_NODE":190.0789,"ARG_OF_PERICENTER":178.8422,"MEAN_ANOMALY":181.2305,"EPHEMERIS_TYPE":0,"CLASSIFICATION_TYPE":"U","NORAD_CAT_ID":53943,"ELEMENT_SET_NO":999,"REV_AT_EPOCH":19214,"BSTAR":0.00051239163,"MEAN_MOTION_DOT":0.00012015,"MEAN_MOTION_DDOT":0},{"OBJECT_NAME":"OBJECT C","OBJECT_ID":"2024-174C","EPOCH":"2026-03-07T05:41:36.519936","MEAN_MOTION":15.21181447,"ECCENTRICITY":0.0009601,"INCLINATION":97.4469,"RA_OF_ASC_NODE":75.6508,"ARG_OF_PERICENTER":198.0637,"MEAN_ANOMALY":162.0259,"EPHEMERIS_TYPE":0,"CLASSIFICATION_TYPE":"U","NORAD_CAT_ID":61240,"ELEMENT_SET_NO":999,"REV_AT_EPOCH":8020,"BSTAR":0.00020676,"MEAN_MOTION_DOT":4.544e-5,"MEAN_MOTION_DDOT":0}]
